ACS3                    
1 59588U 24077B   24238.38011305  .00000034  00000+0  73619-4 0  9991
2 59588  97.4007 290.4742 0018811 264.7789  95.1215 13.67700284 16866
